OBJECT_NAME,OBJECT_ID,EPOCH,MEAN_MOTION,ECCENTRICITY,INCLINATION,RA_OF_ASC_NODE,ARG_OF_PERICENTER,MEAN_ANOMALY,EPHEMERIS_TYPE,CLASSIFICATION_TYPE,NORAD_CAT_ID,ELEMENT_SET_NO,REV_AT_EPOCH,BSTAR,MEAN_MOTION_DOT,MEAN_MOTION_DDOT
HULIANWANG DIGUI-31,2025-121B,2026-03-01T12:06:39.610368,13.24419354,.0002039,86.4961,49.9386,80.5664,279.5701,0,U,64284,999,3590,.62767E-4,.42E-6,0
HULIANWANG DIGUI-32,2025-121C,2026-03-01T11:55:17.535072,13.24424993,.0002017,86.4902,49.7728,82.4929,277.6434,0,U,64285,999,3590,.22581E-4,.24E-6,0
HULIANWANG DIGUI-33,2025-121D,2026-03-01T11:44:23.029152,13.24425193,.0002095,86.4960,49.9285,79.8925,280.2445,0,U,64286,999,3590,.38844E-4,.31E-6,0
HULIANWANG DIGUI-34,2025-121E,2026-03-01T11:33:34.462368,13.24424102,.0002264,86.4938,49.8638,76.6327,283.5059,0,U,64287,999,3590,.44917E-4,.34E-6,0
HULIANWANG DIGUI-35,2025-159A,2026-03-01T10:45:15.050304,13.24416825,.0001333,86.4990,318.8472,69.6386,290.4891,0,U,64956,999,2886,.12487E-3,.68E-6,0
HULIANWANG DIGUI-36,2025-159B,2026-03-01T10:34:06.341952,13.24419485,.0001424,86.5010,318.8868,69.0406,291.0880,0,U,64957,999,2886,.17978E-3,.92E-6,0
HULIANWANG DIGUI-37,2025-159C,2026-03-01T10:23:14.629344,13.24418998,.0001509,86.4951,318.7535,67.5597,292.5697,0,U,64958,999,2886,.14728E-3,.78E-6,0
HULIANWANG DIGUI-38,2025-159D,2026-03-01T12:01:10.953408,13.24419128,.0001473,86.5010,318.8542,70.0035,290.1257,0,U,64959,999,2887,.1265E-3,.69E-6,0
HULIANWANG DIGUI-39,2025-159E,2026-03-01T11:50:17.172384,13.24419238,.0001475,86.4986,318.7974,71.0786,289.0507,0,U,64960,999,2887,.82071E-4,.5E-6,0
HULIANWANG DIGUI-40,2025-162A,2026-03-01T10:25:18.978816,13.29331924,.0000994,49.9995,292.4405,60.2989,299.7982,0,U,65043,999,2901,.14936E-3,-.55E-6,0
HULIANWANG DIGUI-41,2025-162B,2026-03-01T10:13:17.407488,13.29332312,.0001036,50.0005,292.4140,60.1550,299.9425,0,U,65044,999,2902,.16356E-3,-.48E-6,0
HULIANWANG DIGUI-42,2025-162C,2026-03-01T10:01:13.162080,13.29331683,.000097,49.9970,292.3096,61.6850,298.4119,0,U,65045,999,2902,.15883E-3,-.5E-6,0
HULIANWANG DIGUI-43,2025-162D,2026-03-01T09:49:09.852384,13.29332633,.0000972,49.9987,292.2975,60.6205,299.4764,0,U,65046,999,2902,.15576E-3,-.52E-6,0
HULIANWANG DIGUI-44,2025-162E,2026-03-01T11:25:00.206976,13.29340190,.0000801,50.0014,292.0300,339.7087,20.3754,0,U,65047,999,2904,.15135E-3,-.54E-6,0
HULIANWANG DIGUI-45,2025-162F,2026-03-01T11:13:24.714624,13.29332500,.0001032,50.0044,292.0410,60.6763,299.4212,0,U,65048,999,2903,.17407E-3,-.43E-6,0
HULIANWANG DIGUI-46,2025-162G,2026-03-01T11:01:22.757952,13.29332449,.0001022,50.0062,292.0298,62.9855,297.1121,0,U,65049,999,2903,.17194E-3,-.44E-6,0
HULIANWANG DIGUI-47,2025-162H,2026-03-01T10:49:20.785728,13.29332323,.0001002,50.0027,291.9252,64.0333,296.0642,0,U,65050,999,2903,.16277E-3,-.49E-6,0
HULIANWANG DIGUI-48,2025-162J,2026-03-01T10:37:20.797248,13.29331873,.0000988,50.0037,291.8987,61.4433,298.6538,0,U,65051,999,2903,.15544E-3,-.52E-6,0
HULIANWANG DIGUI-49,2025-168A,2026-03-01T08:29:32.767872,13.29338127,.0007385,50.0051,352.7217,141.5300,218.6100,0,U,65106,999,2834,.12513E-3,-.66E-6,0
HULIANWANG DIGUI-50,2025-168B,2026-03-01T08:17:27.012192,13.29338710,.0008335,50.0021,352.6218,127.4002,232.7630,0,U,65107,999,2834,.12859E-3,-.64E-6,0
HULIANWANG DIGUI-51,2025-168C,2026-03-01T08:05:24.302976,13.29338987,.0009678,50.0058,352.6470,127.2699,232.9057,0,U,65108,999,2834,.13939E-3,-.59E-6,0
HULIANWANG DIGUI-52,2025-168D,2026-03-01T07:53:32.126784,13.29337631,.0009587,50.0052,352.5866,140.3004,219.8572,0,U,65109,999,2834,.14468E-3,-.57E-6,0
HULIANWANG DIGUI-53,2025-168E,2026-03-01T07:41:30.114816,13.29337571,.0008372,50.0059,352.5648,129.9951,230.1657,0,U,65110,999,2834,.14528E-3,-.57E-6,0
HULIANWANG DIGUI-54,2025-168F,2026-03-01T08:53:55.601088,13.29334864,.0009959,50.0010,352.0764,135.3980,224.7695,0,U,65111,999,2835,.14223E-3,-.58E-6,0
HULIANWANG DIGUI-55,2025-168G,2026-03-01T07:29:22.332192,13.29338339,.0011242,50.0015,352.4398,130.9156,229.2691,0,U,65112,999,2834,.14846E-3,-.55E-6,0
HULIANWANG DIGUI-56,2025-168H,2026-03-01T09:05:37.632192,13.29337784,.0010975,50.0007,352.1114,153.2183,206.9257,0,U,65113,999,2835,.1406E-3,-.59E-6,0
HULIANWANG DIGUI-57,2025-168J,2026-03-01T08:41:55.861440,13.29334657,.0008715,50.0035,352.0799,143.7721,216.3742,0,U,65114,999,2836,.12957E-3,-.64E-6,0
HULIANWANG DIGUI-58,2025-174A,2026-03-01T11:01:15.026016,13.24420680,.000124,86.4933,288.4134,84.1271,276.0004,0,U,65164,999,2653,.60455E-4,.41E-6,0
HULIANWANG DIGUI-59,2025-174B,2026-03-01T11:12:07.464384,13.24420872,.0001227,86.4894,288.3419,83.0634,277.0639,0,U,65165,999,2653,.10105E-3,.58E-6,0
HULIANWANG DIGUI-60,2025-174C,2026-03-01T11:22:57.910368,13.24421068,.000119,86.4926,288.4075,85.0538,275.0732,0,U,65166,999,2653,.10497E-3,.6E-6,0
