HULIANWANG DIGUI-31     
1 64284U 25121B   26060.50462512  .00000042  00000+0  62767-4 0  9991
2 64284  86.4961  49.9386 0002039  80.5664 279.5701 13.24419354 35906
HULIANWANG DIGUI-32     
1 64285U 25121C   26060.49673073  .00000024  00000+0  22581-4 0  9996
2 64285  86.4902  49.7728 0002017  82.4929 277.6434 13.24424993 35908
HULIANWANG DIGUI-33     
1 64286U 25121D   26060.48915543  .00000031  00000+0  38844-4 0  9994
2 64286  86.4960  49.9285 0002095  79.8925 280.2445 13.24425193 35900
HULIANWANG DIGUI-34     
1 64287U 25121E   26060.48164887  .00000034  00000+0  44917-4 0  9993
2 64287  86.4938  49.8638 0002264  76.6327 283.5059 13.24424102 35902
HULIANWANG DIGUI-35     
1 64956U 25159A   26060.44809086  .00000068  00000+0  12487-3 0  9993
2 64956  86.4990 318.8472 0001333  69.6386 290.4891 13.24416825 28862
HULIANWANG DIGUI-36     
1 64957U 25159B   26060.44035118  .00000092  00000+0  17978-3 0  9998
2 64957  86.5010 318.8868 0001424  69.0406 291.0880 13.24419485 28864
HULIANWANG DIGUI-37     
1 64958U 25159C   26060.43280821  .00000078  00000+0  14728-3 0  9995
2 64958  86.4951 318.7535 0001509  67.5597 292.5697 13.24418998 28866
HULIANWANG DIGUI-38     
1 64959U 25159D   26060.50082122  .00000069  00000+0  12650-3 0  9990
2 64959  86.5010 318.8542 0001473  70.0035 290.1257 13.24419128 28872
HULIANWANG DIGUI-39     
1 64960U 25159E   26060.49325431  .00000050  00000+0  82071-4 0  9998
2 64960  86.4986 318.7974 0001475  71.0786 289.0507 13.24419238 28876
HULIANWANG DIGUI-40     
1 65043U 25162A   26060.43424744 -.00000055  00000+0  14936-3 0  9996
2 65043  49.9995 292.4405 0000994  60.2989 299.7982 13.29331924 29012
HULIANWANG DIGUI-41     
1 65044U 25162B   26060.42589592 -.00000048  00000+0  16356-3 0  9999
2 65044  50.0005 292.4140 0001036  60.1550 299.9425 13.29332312 29022
HULIANWANG DIGUI-42     
1 65045U 25162C   26060.41751345 -.00000050  00000+0  15883-3 0  9993
2 65045  49.9970 292.3096 0000970  61.6850 298.4119 13.29331683 29029
HULIANWANG DIGUI-43     
1 65046U 25162D   26060.40914181 -.00000052  00000+0  15576-3 0  9993
2 65046  49.9987 292.2975 0000972  60.6205 299.4764 13.29332633 29021
HULIANWANG DIGUI-44     
1 65047U 25162E   26060.47569684 -.00000054  00000+0  15135-3 0  9998
2 65047  50.0014 292.0300 0000801 339.7087  20.3754 13.29340190 29044
HULIANWANG DIGUI-45     
1 65048U 25162F   26060.46764716 -.00000043  00000+0  17407-3 0  9993
2 65048  50.0044 292.0410 0001032  60.6763 299.4212 13.29332500 29031
HULIANWANG DIGUI-46     
1 65049U 25162G   26060.45929118 -.00000044  00000+0  17194-3 0  9996
2 65049  50.0062 292.0298 0001022  62.9855 297.1121 13.29332449 29038
HULIANWANG DIGUI-47     
1 65050U 25162H   26060.45093502 -.00000049  00000+0  16277-3 0  9993
2 65050  50.0027 291.9252 0001002  64.0333 296.0642 13.29332323 29038
HULIANWANG DIGUI-48     
1 65051U 25162J   26060.44260182 -.00000052  00000+0  15544-3 0  9993
2 65051  50.0037 291.8987 0000988  61.4433 298.6538 13.29331873 29039
HULIANWANG DIGUI-49     
1 65106U 25168A   26060.35385148 -.00000066  00000+0  12513-3 0  9998
2 65106  50.0051 352.7217 0007385 141.5300 218.6100 13.29338127 28349
HULIANWANG DIGUI-50     
1 65107U 25168B   26060.34545153 -.00000064  00000+0  12859-3 0  9993
2 65107  50.0021 352.6218 0008335 127.4002 232.7630 13.29338710 28348
HULIANWANG DIGUI-51     
1 65108U 25168C   26060.33708684 -.00000059  00000+0  13939-3 0  9997
2 65108  50.0058 352.6470 0009678 127.2699 232.9057 13.29338987 28341
HULIANWANG DIGUI-52     
1 65109U 25168D   26060.32884406 -.00000057  00000+0  14468-3 0  9990
2 65109  50.0052 352.5866 0009587 140.3004 219.8572 13.29337631 28340
HULIANWANG DIGUI-53     
1 65110U 25168E   26060.32048744 -.00000057  00000+0  14528-3 0  9996
2 65110  50.0059 352.5648 0008372 129.9951 230.1657 13.29337571 28345
HULIANWANG DIGUI-54     
1 65111U 25168F   26060.37078242 -.00000058  00000+0  14223-3 0  9991
2 65111  50.0010 352.0764 0009959 135.3980 224.7695 13.29334864 28356
HULIANWANG DIGUI-55     
1 65112U 25168G   26060.31206403 -.00000055  00000+0  14846-3 0  9996
2 65112  50.0015 352.4398 0011242 130.9156 229.2691 13.29338339 28349
HULIANWANG DIGUI-56     
1 65113U 25168H   26060.37890778 -.00000059  00000+0  14060-3 0  9999
2 65113  50.0007 352.1114 0010975 153.2183 206.9257 13.29337784 28358
HULIANWANG DIGUI-57     
1 65114U 25168J   26060.36245210 -.00000064  00000+0  12957-3 0  9993
2 65114  50.0035 352.0799 0008715 143.7721 216.3742 13.29334657 28360
HULIANWANG DIGUI-58     
1 65164U 25174A   26060.45920169  .00000041  00000+0  60455-4 0  9999
2 65164  86.4933 288.4134 0001240  84.1271 276.0004 13.24420680 26532
HULIANWANG DIGUI-59     
1 65165U 25174B   26060.46675306  .00000058  00000+0  10105-3 0  9995
2 65165  86.4894 288.3419 0001227  83.0634 277.0639 13.24420872 26538
HULIANWANG DIGUI-60     
1 65166U 25174C   26060.47428137  .00000060  00000+0  10497-3 0  9992
2 65166  86.4926 288.4075 0001190  85.0538 275.0732 13.24421068 26538
